LEMUR-1                 
1 40044U 14033AL  26192.20957418  .00000946  00000+0  11416-3 0  9993
2 40044  97.7902 341.4854 0048123   1.0839 359.0472 14.85329733649033
LEMUR-2-GREENBERG       
1 42837U 17042N   26190.49536315  .00011532  00000+0  37497-3 0  9996
2 42837  97.3831  11.0293 0007135 283.6729  76.3718 15.32031511491802
LEMUR-2-ANDIS           
1 42838U 17042P   26192.49189465  .00012549  00000+0  36190-3 0  9997
2 42838  97.3677  13.2900 0007119 273.9342  86.1087 15.35824347492185
LEMUR-2-MONSON          
1 42839U 17042Q   26191.46928106  .00009600  00000+0  34677-3 0  9999
2 42839  97.4089  11.9359 0005156 266.7916  93.2733 15.28674858491721
LEMUR-2-FURIAUS         
1 42840U 17042R   26191.74629140  .00012077  00000+0  40490-3 0  9990
2 42840  97.3778  10.1778 0006360 347.2297  12.8782 15.31036825491819
LEMUR-2-PETERG          
1 42841U 17042S   26192.49062341  .00011541  00000+0  34277-3 0  9999
2 42841  97.3993  17.5787 0003062 236.9391 123.1558 15.34938711492169
LEMUR-2-DEMBITZ         
1 42842U 17042T   26192.48491306  .00009065  00000+0  30475-3 0  9990
2 42842  97.3826  13.9534 0005021 291.4687  68.6018 15.31034137492065
LEMUR-2-ZACHARY         
1 42845U 17042W   26192.50743102  .00031430  00000+0  51402-3 0  9994
2 42845  97.3581  24.6988 0002461 266.4997  93.5974 15.52470693492971
LEMUR-2-AMANDA-SVANTE   
1 48269U 21034B   26192.47657602  .00019130  00000+0  55070-3 0  9999
2 48269  97.5760 271.4268 0004379 151.4051 208.7434 15.35804454284781
LEMUR-2-SPECIAL-K       
1 48273U 21034F   26190.48357970  .00187516  00000+0  13703-2 0  9998
2 48273  97.5638 279.0810 0006094 220.1944 139.8869 15.72652165285180
LEMUR-2-EMBRIONOVIS     
1 56970U 23084AQ  26192.34184082  .00008735  00000+0  23455-3 0  9998
2 56970  97.6308 337.4824 0007992 221.2011 138.8630 15.38163723171398
LEMUR-2-DEVERILL-M-T    
1 57391U 23100F   26191.55573213  .00019034  00000+0  46465-3 0  9995
2 57391  99.4467 237.0829 0004687 316.3401  43.7467 15.40939076164848
LEMUR-2-BASS            
1 58259U 23174D   26192.52152999  .00011268  00000+0  24960-3 0  9999
2 58259  97.3849 277.5862 0007825  89.1280 271.0864 15.43911545149110
LEMUR-2-JK0903EM1407    
1 58336U 23174CJ  26192.51064492  .00017167  00000+0  27729-3 0  9994
2 58336  97.3921 283.6875 0003976  45.6940 314.4638 15.52935066149500
LEMUR-2-MJR092620       
1 58340U 23174CN  26192.50614736  .00011942  00000+0  24841-3 0  9997
2 58340  97.3977 282.9972 0005628  42.5206 317.6478 15.45771809149404
LEMUR-2-NIMBUS2000      
1 58899U 24022A   26192.50243846  .00013356  00000+0  32526-3 0  9999
2 58899  97.4093  42.8231 0009129  40.8415 319.3514 15.41011020136018
LEMUR-2-VALHALLA        
1 58900U 24022B   26192.50582823  .00009817  00000+0  24446-3 0  9992
2 58900  97.4091  42.7999 0009617  36.4072 323.7827 15.40413651136012
LEMUR-2-CAEL            
1 58903U 24022E   26192.49469178  .00010410  00000+0  24788-3 0  9990
2 58903  97.4060  43.7679 0007550  22.2157 337.9415 15.41773075136085
LEMUR-2-JOHNNYTRUONG    
1 59146U 24043BA  26190.38966179  .00034473  00000+0  39216-3 0  9999
2 59146  97.5385 343.4983 0004347 109.9411 250.2315 15.62219537131500
LEMUR-2-TOMATOKECHUP    
1 60471U 24149D   26192.53274769  .00006494  00000+0  18442-3 0  9995
2 60471  97.3802 274.6484 0003130 128.8617 231.2907 15.36533766105908
LEMUR-2-STELLA          
1 60533U 24149BT  26192.17005610  .00006900  00000+0  40208-3 0  9998
2 60533  97.6738 274.7368 0001088 114.5657 245.5687 15.12319994104121
LEMUR-2-MARHISYAM       
1 60536U 24149BW  26191.16652374  .00007816  00000+0  46249-3 0  9992
2 60536  97.6880 274.2005 0002818  77.1938 282.9606 15.11717897103952
LEMUR-2-AHMED-ASRAR     
1 60576U 24149DN  26191.17809680  .00008812  00000+0  49942-3 0  9991
2 60576  97.7004 276.3951 0000730 234.1758 125.9404 15.13238870104048
LEMUR-2-LLOYD           
1 60577U 24149DP  26192.17190216  .00006469  00000+0  40523-3 0  9993
2 60577  97.6747 273.3196 0004734  80.8597 279.3167 15.09703583104015
LEMUR-2-SQUIRRELCOMM    
1 60578U 24149DQ  26189.03451372  .00003681  00000+0  24740-3 0  9994
2 60578  97.6707 269.8822 0004746 354.4134   5.7039 15.07397331103542
LEMUR-2-SIERRINI        
1 60579U 24149DR  26191.98895867  .00007045  00000+0  42017-3 0  9998
2 60579  97.6838 274.6929 0006380 101.6319 258.5627 15.11454053104051
LEMUR-2-WILSON          
1 62694U 25009CP  26192.45438598  .00000760  00000+0  74169-4 0  9992
2 62694  97.7026 270.4936 0002294 345.8644  14.2512 14.95271198 80989
LEMUR-2-STAR-FOX        
1 62696U 25009CR  26192.19846713  .00003478  00000+0  26429-3 0  9991
2 62696  97.6922 273.6357 0002776  57.6752 302.4741 15.02812178 81165
LEMUR-2-ARIANNA         
1 62699U 25009CU  26192.19693601  .00003677  00000+0  27917-3 0  9994
2 62699  97.6860 273.3895 0003031  62.8427 297.3107 15.02812628 81163
LEMUR-2-ALISIA          
1 62706U 25009DB  26192.17017560  .00005049  00000+0  37831-3 0  9996
2 62706  97.6969 274.1792 0003798 141.7275 218.4220 15.03137168103766
